satname,norad_id,inclination_deg,eccentricity,mean_motion_rev_per_day,perigee_km,apogee_km,l1,l2
STARLINK-1152,45096,53.0438,0.0005038,15.28343724,477.30767007729355,484.2186979026819,1 45096U 20006BE  25348.14029305  .00041602  00000+0  14909-2 0  9995,2 45096  53.0438 246.7872 0005038  49.7203 310.4236 15.28343724324463
STARLINK-1184,45098,53.0548,0.0001899,15.06624862,545.2074811764533,547.8374668446831,1 45098U 20006BG  25348.06021694  .00084404  00000+0  55839-2 0  9995,2 45098  53.0548 271.0198 0001899 116.3240 243.7944 15.06624862324119
STARLINK-1193,45100,53.0538,0.0001504,15.06425895,546.0906341428472,548.1737551165925,1 45100U 20006BJ  25348.18932017  .00016551  00000+0  11266-2 0  9996,2 45100  53.0538 270.4447 0001504  82.9876 277.1284 15.06425895324133
STARLINK-1143,45179,53.0526,0.0002013,15.46496809,425.6136720681325,428.35341359867743,1 45179U 20012B   25348.28882297  .00084842  00000+0  16726-2 0  9998,2 45179  53.0526  22.2026 0002013 192.9822 167.1133 15.46496809322643
STARLINK-1202,45183,53.056,0.0001191,15.0638256,546.4401941628075,548.0898249214806,1 45183U 20012F   25348.25198788  .00000239  00000+0  34933-4 0  9995,2 45183  53.0560  70.1669 0001191  97.2407 262.8718 15.06382560321963
STARLINK-1216,45185,53.0547,0.0001473,15.06380772,546.250377092565,548.2906021390054,1 45185U 20012H   25347.97922698 -.00001088  00000+0 -54211-4 0  9996,2 45185  53.0547  71.3859 0001473  97.1336 262.9821 15.06380772321865
STARLINK-1225,45187,53.0558,0.0001553,15.06376987,546.2065727819918,548.3576079514596,1 45187U 20012K   25348.26305219 -.00000356  00000+0 -50311-5 0  9990,2 45187  53.0558  70.1142 0001553  79.2579 280.8585 15.06376987321959
STARLINK-1230,45189,53.056,0.000111,15.0635825,546.5707907369779,548.1082465241143,1 45189U 20012M   25348.26673256 -.00000068  00000+0  14328-4 0  9997,2 45189  53.0560  70.0999 0001110  99.8681 260.2434 15.06358250319184
STARLINK-1234,45190,53.0518,0.0007273,15.43356464,431.2554867330382,441.16763815196737,1 45190U 20012N   25348.29812612  .00083358  00000+0  18278-2 0  9991,2 45190  53.0518  16.7174 0007273   2.8233 357.2812 15.43356464322619
STARLINK-1269,45197,53.0543,0.0001364,15.06390238,546.2968555995722,548.1860988481585,1 45197U 20012V   25347.94604150 -.00001380  00000+0 -73813-4 0  9990,2 45197  53.0543  71.5360 0001364  85.2455 274.8690 15.06390238321888
STARLINK-1154,45198,53.0571,0.0001682,15.06373102,546.1291401671397,548.4588551547531,1 45198U 20012W   25348.33493552 -.00000155  00000+0  84738-5 0  9994,2 45198  53.0571  49.7886 0001682 105.8610 254.2565 15.06373102322194
STARLINK-1199,45201,53.0579,0.00013,15.06393542,546.3310529632563,548.1316487344757,1 45201U 20012Z   25348.34596908 -.00003332  00000+0 -20491-3 0  9994,2 45201  53.0579  49.7464 0001300  99.5923 260.5213 15.06393542322259
STARLINK-1209,45206,53.0534,0.0007846,15.3656246,450.9212060248956,461.645778661481,1 45206U 20012AE  25348.34245652  .00067747  00000+0  18632-2 0  9997,2 45206  53.0534  19.0961 0007846   5.0891 355.0190 15.36562460321730
STARLINK-1210,45207,53.0212,0.0002953,15.68605346,360.89907710615626,364.8803274765296,1 45207U 20012AF  25348.33336806  .00077025  00000+0  66408-3 0  9994,2 45207  53.0212 332.0407 0002953 142.6033 267.4938 15.68605346  5851
STARLINK-1231,45212,53.0506,0.0002955,15.15202864,518.324244329081,522.401257681925,1 45212U 20012AL  25347.55466191  .00020633  00000+0  10988-2 0  9998,2 45212  53.0506  49.4149 0002955 164.8120 195.2962 15.15202864322149
STARLINK-1271,45217,53.0539,0.0001465,15.06398214,546.2024674107979,548.23159614211,1 45217U 20012AR  25348.33122954  .00003675  00000+0  26550-3 0  9996,2 45217  53.0539  49.8052 0001465  96.5446 263.5710 15.06398214322251
STARLINK-1191,45222,53.055,0.0001439,15.0641338,546.1739987123656,548.1671022253913,1 45222U 20012AW  25348.34044102  .00005399  00000+0  38091-3 0  9999,2 45222  53.0550  29.7658 0001439  89.3003 270.8151 15.06413380322532
STARLINK-1212,45223,53.0582,0.0001469,15.06376908,546.2649883965787,548.2996765964663,1 45223U 20012AX  25348.29262437 -.00000111  00000+0  11422-4 0  9995,2 45223  53.0582  30.6411 0001469  92.6484 267.4673 15.06376908322523
STARLINK-1215,45225,53.0556,0.0001374,15.06399127,546.2626902993434,548.1657768183259,1 45225U 20012AZ  25348.31464498  .00004787  00000+0  34008-3 0  9997,2 45225  53.0556  29.8815 0001374  86.0890 274.0256 15.06399127322481
STARLINK-1221,45227,53.0678,0.0005559,15.38621361,446.38929627228845,453.9810248504,1 45227U 20012BB  25348.19309648  .00017728  00000+0  46691-3 0  9990,2 45227  53.0678 313.7002 0005559  92.7643 267.3997 15.38621361323537
STARLINK-1222,45228,53.0564,0.0001551,15.22886335,496.0733475117595,498.2060583450075,1 45228U 20012BC  25348.33336806  .02000251  00000+0  75956-1 0  9992,2 45228  53.0564  28.9763 0001551  65.1320 282.0327 15.22886335  5697
STARLINK-1226,45229,53.0547,0.0001574,15.06378837,546.1863601722616,548.366480316954,1 45229U 20012BD  25348.31094898  .00010140  00000+0  69907-3 0  9990,2 45229  53.0547  29.8969 0001574  96.6009 263.5159 15.06378837322420
STARLINK-1227,45230,53.0536,0.000172,15.06380275,546.0808425318119,548.4631832322439,1 45230U 20012BE  25348.30728788  .00000548  00000+0  55726-4 0  9999,2 45230  53.0536  29.9112 0001720  85.2993 274.8192 15.06380275322544
STARLINK-1246,45235,53.0559,0.0001818,15.06383675,546.0025546998459,548.5206296279575,1 45235U 20012BK  25348.25568242  .00004361  00000+0  31159-3 0  9995,2 45235  53.0559  70.1410 0001818 101.7660 258.3533 15.06383675321986
STARLINK-1270,45237,53.0556,0.000179,15.06480731,545.7245469962436,548.2037332043992,1 45237U 20012BM  25348.32561636  .00010588  00000+0  72708-3 0  9998,2 45237  53.0556  29.8329 0001790  74.5442 285.5744 15.06480731322538
STARLINK-1279,45360,53.049,0.0007131,15.41299482,437.4094263741363,447.13669520283383,1 45360U 20019A   25348.33336806  .00154474  00000+0  35870-2 0  9993,2 45360  53.0490 147.5610 0007131 168.0554 237.1214 15.41299482  5725
STARLINK-1301,45361,53.0492,0.000765,15.44342515,428.0998896024839,438.52140450247316,1 45361U 20019B   25348.33336806  .00173555  00000+0  36285-2 0  9996,2 45361  53.0492 156.4472 0007650 161.6739 151.0644 15.44342515  5857
STARLINK-1306,45362,53.0368,0.0001342,15.89153538,303.75803390005785,305.55169523650693,1 45362U 20019C   25348.33336806  .00327792  00000+0  10767-2 0  9998,2 45362  53.0368 134.4496 0001342  49.4508 261.3908 15.89153538  5954
STARLINK-1262,45366,53.054,0.0001385,15.06396618,546.2627610896952,548.18108551145,1 45366U 20019G   25348.30358004 -.00000109  00000+0  11556-4 0  9993,2 45366  53.0540 189.9277 0001385  94.4086 265.7061 15.06396618316860
STARLINK-1273,45367,53.0539,0.0001452,15.06396128,546.2178627523044,548.2289874197486,1 45367U 20019H   25348.25934894  .00000320  00000+0  40386-4 0  9992,2 45367  53.0539 190.1262 0001452  91.4466 268.6689 15.06396128316854
STARLINK-1276,45368,53.0533,0.000127,15.06391663,546.3575872484353,548.1166322723138,1 45368U 20019J   25348.29619852 -.00002507  00000+0 -14954-3 0  9993,2 45368  53.0533 189.9657 0001270  88.2413 271.8722 15.06391663316861
STARLINK-1277,45369,53.0539,0.0001563,15.06397276,546.1374733340263,548.3023399030344,1 45369U 20019K   25348.28891282  .00000074  00000+0  23883-4 0  9999,2 45369  53.0539 190.6237 0001563  93.8555 266.2613 15.06397276316857
STARLINK-1281,45370,53.0533,0.0001436,15.06407027,546.1955443188135,548.184498239325,1 45370U 20019L   25348.28514919  .00000639  00000+0  61798-4 0  9994,2 45370  53.0533 190.0165 0001436  90.2040 269.9114 15.06407027316869
STARLINK-1300,45374,53.0546,0.0001743,15.06391419,546.0307647545524,548.4449504299091,1 45374U 20019Q   25348.30727414  .00000665  00000+0  63567-4 0  9992,2 45374  53.0546 189.9127 0001743  94.0196 266.0992 15.06391419316866
STARLINK-1302,45375,53.0525,0.000152,15.06394591,546.1754802932037,548.2807912944845,1 45375U 20019R   25348.25566272  .00001550  00000+0  12297-3 0  9997,2 45375  53.0525 190.1458 0001520  92.0779 268.0385 15.06394591316854
STARLINK-1304,45376,53.0536,0.0001278,15.06396419,546.337472260916,548.1075941576046,1 45376U 20019S   25348.27409809 -.00000407  00000+0 -84271-5 0  9997,2 45376  53.0536 190.0609 0001278  96.7364 263.3770 15.06396419316852
STARLINK-1305,45377,53.0518,0.0009301,15.37467977,447.2455344412392,459.95393111155045,1 45377U 20019T   25347.87527028  .00073827  00000+0  19687-2 0  9997,2 45377  53.0518 181.0302 0009301 140.9902 219.1773 15.37467977316953
STARLINK-1319,45379,53.0519,0.0007799,15.42411695,433.67724692081174,444.31060774126126,1 45379U 20019V   25347.82823959  .00079602  00000+0  18028-2 0  9991,2 45379  53.0519 182.2165 0007799 146.1784 213.9719 15.42411695316933
STARLINK-1266,45383,53.0542,0.0001399,15.06416979,546.190671254295,548.1283692206562,1 45383U 20019Z   25348.22802376 -.00002585  00000+0 -15462-3 0  9999,2 45383  53.0542 170.2723 0001399  87.8540 272.2609 15.06416979317120
STARLINK-1267,45384,53.054,0.000114,15.11450915,530.9866267482275,532.5620865375413,1 45384U 20019AA  25348.33336806  .00082396  00000+0  47790-2 0  9996,2 45384  53.0540 170.4033 0001140 107.6716 211.5931 15.11450915  5756
STARLINK-1272,45386,53.0506,0.0007989,15.40817675,438.24483369624613,449.1447565384851,1 45386U 20019AC  25348.31616273  .00108934  00000+0  25878-2 0  9995,2 45386  53.0506 158.2293 0007989 162.3377 197.7906 15.40817675317306
STARLINK-1274,45387,53.0329,0.0002939,15.34523131,460.326878003264,464.3477087929232,1 45387U 20019AD  25348.33336806  .00129416  00000+0  37606-2 0  9999,2 45387  53.0329 147.1894 0002939 116.3837  20.1302 15.34523131  5828
STARLINK-1280,45388,53.0508,0.0009969,15.46301381,420.7723074629048,434.34149996813267,1 45388U 20019AE  25348.15514016  .00022956  00000+0  46484-3 0  9997,2 45388  53.0508 176.6103 0009969 138.2452 221.9316 15.46301381317022
